ONEWEB-0018             
1 45434U 20020L   25334.61742044  .00000519  00000+0  14282-2 0  9992
2 45434  87.8874  60.6043 0001875 104.4354 255.6982 13.11416698276603
ONEWEB-0083             
1 45435U 20020M   25334.60808969  .00000413  00000+0  11296-2 0  9996
2 45435  87.8868  60.5958 0001817 103.8741 256.2589 13.11417398276642
ONEWEB-0095             
1 45436U 20020N   25334.52259696  .00000138  00000+0  35355-3 0  9992
2 45436  87.8864  60.6242 0000939 108.5682 251.5548 13.11421305276631
ONEWEB-0092             
1 45437U 20020P   25334.26558611 -.00000332  00000+0 -97389-3 0  9996
2 45437  87.8867  60.6738 0001473 107.3454 252.7835 13.11415005276714
ONEWEB-0085             
1 45438U 20020Q   25334.60724371  .00000273  00000+0  73478-3 0  9998
2 45438  87.8864  60.6151 0001667 104.4233 255.7080 13.11418813276646
ONEWEB-0096             
1 45439U 20020R   25334.60894160  .00000393  00000+0  10722-2 0  9998
2 45439  87.8872  60.5944 0001957 108.0638 252.0704 13.11418232276633
ONEWEB-0037             
1 45440U 20020S   25334.51313143 -.00000419  00000+0 -12184-2 0  9992
2 45440  87.8882  60.5820 0001559 105.0294 255.1007 13.11419014276653
ONEWEB-0042             
1 45441U 20020T   25334.52232334 -.00000008  00000+0 -59709-4 0  9996
2 45441  87.8872  60.6109 0001653 108.1279 252.0029 13.11419765276626
ONEWEB-0098             
1 45442U 20020U   25334.28931971 -.00000344  00000+0 -10056-2 0  9996
2 45442  87.8870  60.6691 0001708 101.0400 259.0921 13.11418993276574
ONEWEB-0055             
1 45443U 20020V   25334.27236909 -.00000475  00000+0 -13756-2 0  9990
2 45443  87.8870  60.6735 0001709 101.7253 258.4067 13.11417229276540
ONEWEB-0093             
1 45444U 20020W   25334.24794125  .00000333  00000+0  90244-3 0  9996
2 45444  87.8873  60.6651 0001902 117.0131 243.1191 13.11415313276609
ONEWEB-0029             
1 45445U 20020X   25334.49278321 -.00000326  00000+0 -95653-3 0  9992
2 45445  87.8872  60.6288 0001827 106.1949 253.9380 13.11413642276610
ONEWEB-0068             
1 45446U 20020Y   25334.24767018  .00000390  00000+0  10649-2 0  9992
2 45446  87.8873  60.6667 0001845 107.4202 252.7128 13.11415232276523
ONEWEB-0046             
1 45447U 20020Z   25334.62080928  .00000444  00000+0  12176-2 0  9990
2 45447  87.8871  60.6002 0001657 112.6450 247.4853 13.11416390276587
ONEWEB-0063             
1 45448U 20020AA  25334.26812191 -.00000381  00000+0 -11101-2 0  9995
2 45448  87.8871  60.6685 0001534 110.5733 249.5560 13.11414107276627
ONEWEB-0019             
1 45449U 20020AB  25334.62272131  .00000475  00000+0  13005-2 0  9997
2 45449  87.8858  60.6084 0002058  99.8937 260.2424 13.11599093276518
