[{"OBJECT_NAME":"ONEWEB-0018","OBJECT_ID":"2020-020L","EPOCH":"2025-11-30T14:49:05.126016","MEAN_MOTION":13.11416698,"ECCENTRICITY":0.00018757,"INCLINATION":87.8874,"RA_OF_ASC_NODE":60.6043,"ARG_OF_PERICENTER":104.4354,"MEAN_ANOMALY":255.6982,"EPHEMERIS_TYPE":0,"CLASSIFICATION_TYPE":"U","NORAD_CAT_ID":45434,"ELEMENT_SET_NO":999,"REV_AT_EPOCH":27660,"BSTAR":0.0014282477,"MEAN_MOTION_DOT":5.19e-6,"MEAN_MOTION_DDOT":0},{"OBJECT_NAME":"ONEWEB-0083","OBJECT_ID":"2020-020M","EPOCH":"2025-11-30T14:35:38.949216","MEAN_MOTION":13.11417398,"ECCENTRICITY":0.00018173,"INCLINATION":87.8868,"RA_OF_ASC_NODE":60.5958,"ARG_OF_PERICENTER":103.8741,"MEAN_ANOMALY":256.2589,"EPHEMERIS_TYPE":0,"CLASSIFICATION_TYPE":"U","NORAD_CAT_ID":45435,"ELEMENT_SET_NO":999,"REV_AT_EPOCH":27664,"BSTAR":0.0011295512,"MEAN_MOTION_DOT":4.13e-6,"MEAN_MOTION_DDOT":0},{"OBJECT_NAME":"ONEWEB-0095","OBJECT_ID":"2020-020N","EPOCH":"2025-11-30T12:32:32.377344","MEAN_MOTION":13.11421305,"ECCENTRICITY":9.394e-5,"INCLINATION":87.8864,"RA_OF_ASC_NODE":60.6242,"ARG_OF_PERICENTER":108.5682,"MEAN_ANOMALY":251.5548,"EPHEMERIS_TYPE":0,"CLASSIFICATION_TYPE":"U","NORAD_CAT_ID":45436,"ELEMENT_SET_NO":999,"REV_AT_EPOCH":27663,"BSTAR":0.00035355094,"MEAN_MOTION_DOT":1.38e-6,"MEAN_MOTION_DDOT":0},{"OBJECT_NAME":"ONEWEB-0092","OBJECT_ID":"2020-020P","EPOCH":"2025-11-30T06:22:26.639904","MEAN_MOTION":13.11415005,"ECCENTRICITY":0.00014735,"INCLINATION":87.8867,"RA_OF_ASC_NODE":60.6738,"ARG_OF_PERICENTER":107.3454,"MEAN_ANOMALY":252.7835,"EPHEMERIS_TYPE":0,"CLASSIFICATION_TYPE":"U","NORAD_CAT_ID":45437,"ELEMENT_SET_NO":999,"REV_AT_EPOCH":27671,"BSTAR":-0.00097388617,"MEAN_MOTION_DOT":-3.32e-6,"MEAN_MOTION_DDOT":0},{"OBJECT_NAME":"ONEWEB-0085","OBJECT_ID":"2020-020Q","EPOCH":"2025-11-30T14:34:25.856544","MEAN_MOTION":13.11418813,"ECCENTRICITY":0.00016671,"INCLINATION":87.8864,"RA_OF_ASC_NODE":60.6151,"ARG_OF_PERICENTER":104.4233,"MEAN_ANOMALY":255.708,"EPHEMERIS_TYPE":0,"CLASSIFICATION_TYPE":"U","NORAD_CAT_ID":45438,"ELEMENT_SET_NO":999,"REV_AT_EPOCH":27664,"BSTAR":0.000734784,"MEAN_MOTION_DOT":2.73e-6,"MEAN_MOTION_DDOT":0},{"OBJECT_NAME":"ONEWEB-0096","OBJECT_ID":"2020-020R","EPOCH":"2025-11-30T14:36:52.554240","MEAN_MOTION":13.11418232,"ECCENTRICITY":0.00019574,"INCLINATION":87.8872,"RA_OF_ASC_NODE":60.5944,"ARG_OF_PERICENTER":108.0638,"MEAN_ANOMALY":252.0704,"EPHEMERIS_TYPE":0,"CLASSIFICATION_TYPE":"U","NORAD_CAT_ID":45439,"ELEMENT_SET_NO":999,"REV_AT_EPOCH":27663,"BSTAR":0.0010722025,"MEAN_MOTION_DOT":3.93e-6,"MEAN_MOTION_DDOT":0},{"OBJECT_NAME":"ONEWEB-0037","OBJECT_ID":"2020-020S","EPOCH":"2025-11-30T12:18:54.555552","MEAN_MOTION":13.11419014,"ECCENTRICITY":0.00015594,"INCLINATION":87.8882,"RA_OF_ASC_NODE":60.582,"ARG_OF_PERICENTER":105.0294,"MEAN_ANOMALY":255.1007,"EPHEMERIS_TYPE":0,"CLASSIFICATION_TYPE":"U","NORAD_CAT_ID":45440,"ELEMENT_SET_NO":999,"REV_AT_EPOCH":27665,"BSTAR":-0.0012183888,"MEAN_MOTION_DOT":-4.19e-6,"MEAN_MOTION_DDOT":0},{"OBJECT_NAME":"ONEWEB-0042","OBJECT_ID":"2020-020T","EPOCH":"2025-11-30T12:32:08.736576","MEAN_MOTION":13.11419765,"ECCENTRICITY":0.00016533,"INCLINATION":87.8872,"RA_OF_ASC_NODE":60.6109,"ARG_OF_PERICENTER":108.1279,"MEAN_ANOMALY":252.0029,"EPHEMERIS_TYPE":0,"CLASSIFICATION_TYPE":"U","NORAD_CAT_ID":45441,"ELEMENT_SET_NO":999,"REV_AT_EPOCH":27662,"BSTAR":-5.9708524e-5,"MEAN_MOTION_DOT":-8.0e-8,"MEAN_MOTION_DDOT":0},{"OBJECT_NAME":"ONEWEB-0098","OBJECT_ID":"2020-020U","EPOCH":"2025-11-30T06:56:37.222944","MEAN_MOTION":13.11418993,"ECCENTRICITY":0.00017088,"INCLINATION":87.887,"RA_OF_ASC_NODE":60.6691,"ARG_OF_PERICENTER":101.04,"MEAN_ANOMALY":259.0921,"EPHEMERIS_TYPE":0,"CLASSIFICATION_TYPE":"U","NORAD_CAT_ID":45442,"ELEMENT_SET_NO":999,"REV_AT_EPOCH":27657,"BSTAR":-0.001005644,"MEAN_MOTION_DOT":-3.44e-6,"MEAN_MOTION_DDOT":0},{"OBJECT_NAME":"ONEWEB-0055","OBJECT_ID":"2020-020V","EPOCH":"2025-11-30T06:32:12.689376","MEAN_MOTION":13.11417229,"ECCENTRICITY":0.00017095,"INCLINATION":87.887,"RA_OF_ASC_NODE":60.6735,"ARG_OF_PERICENTER":101.7253,"MEAN_ANOMALY":258.4067,"EPHEMERIS_TYPE":0,"CLASSIFICATION_TYPE":"U","NORAD_CAT_ID":45443,"ELEMENT_SET_NO":999,"REV_AT_EPOCH":27654,"BSTAR":-0.0013756228,"MEAN_MOTION_DOT":-4.75e-6,"MEAN_MOTION_DDOT":0},{"OBJECT_NAME":"ONEWEB-0093","OBJECT_ID":"2020-020W","EPOCH":"2025-11-30T05:57:02.124000","MEAN_MOTION":13.11415313,"ECCENTRICITY":0.00019022,"INCLINATION":87.8873,"RA_OF_ASC_NODE":60.6651,"ARG_OF_PERICENTER":117.0131,"MEAN_ANOMALY":243.1191,"EPHEMERIS_TYPE":0,"CLASSIFICATION_TYPE":"U","NORAD_CAT_ID":45444,"ELEMENT_SET_NO":999,"REV_AT_EPOCH":27660,"BSTAR":0.00090244102,"MEAN_MOTION_DOT":3.33e-6,"MEAN_MOTION_DDOT":0},{"OBJECT_NAME":"ONEWEB-0029","OBJECT_ID":"2020-020X","EPOCH":"2025-11-30T11:49:36.469344","MEAN_MOTION":13.11413642,"ECCENTRICITY":0.00018272,"INCLINATION":87.8872,"RA_OF_ASC_NODE":60.6288,"ARG_OF_PERICENTER":106.1949,"MEAN_ANOMALY":253.938,"EPHEMERIS_TYPE":0,"CLASSIFICATION_TYPE":"U","NORAD_CAT_ID":45445,"ELEMENT_SET_NO":999,"REV_AT_EPOCH":27661,"BSTAR":-0.00095653345,"MEAN_MOTION_DOT":-3.26e-6,"MEAN_MOTION_DDOT":0},{"OBJECT_NAME":"ONEWEB-0068","OBJECT_ID":"2020-020Y","EPOCH":"2025-11-30T05:56:38.703552","MEAN_MOTION":13.11415232,"ECCENTRICITY":0.00018452,"INCLINATION":87.8873,"RA_OF_ASC_NODE":60.6667,"ARG_OF_PERICENTER":107.4202,"MEAN_ANOMALY":252.7128,"EPHEMERIS_TYPE":0,"CLASSIFICATION_TYPE":"U","NORAD_CAT_ID":45446,"ELEMENT_SET_NO":999,"REV_AT_EPOCH":27652,"BSTAR":0.0010649235,"MEAN_MOTION_DOT":3.9e-6,"MEAN_MOTION_DDOT":0},{"OBJECT_NAME":"ONEWEB-0046","OBJECT_ID":"2020-020Z","EPOCH":"2025-11-30T14:53:57.921792","MEAN_MOTION":13.1141639,"ECCENTRICITY":0.00016572,"INCLINATION":87.8871,"RA_OF_ASC_NODE":60.6002,"ARG_OF_PERICENTER":112.645,"MEAN_ANOMALY":247.4853,"EPHEMERIS_TYPE":0,"CLASSIFICATION_TYPE":"U","NORAD_CAT_ID":45447,"ELEMENT_SET_NO":999,"REV_AT_EPOCH":27658,"BSTAR":0.0012176297,"MEAN_MOTION_DOT":4.44e-6,"MEAN_MOTION_DDOT":0},{"OBJECT_NAME":"ONEWEB-0063","OBJECT_ID":"2020-020AA","EPOCH":"2025-11-30T06:26:05.733024","MEAN_MOTION":13.11414107,"ECCENTRICITY":0.00015347,"INCLINATION":87.8871,"RA_OF_ASC_NODE":60.6685,"ARG_OF_PERICENTER":110.5733,"MEAN_ANOMALY":249.556,"EPHEMERIS_TYPE":0,"CLASSIFICATION_TYPE":"U","NORAD_CAT_ID":45448,"ELEMENT_SET_NO":999,"REV_AT_EPOCH":27662,"BSTAR":-0.0011100798,"MEAN_MOTION_DOT":-3.81e-6,"MEAN_MOTION_DDOT":0},{"OBJECT_NAME":"ONEWEB-0019","OBJECT_ID":"2020-020AB","EPOCH":"2025-11-30T14:56:43.121184","MEAN_MOTION":13.11599093,"ECCENTRICITY":0.00020589,"INCLINATION":87.8858,"RA_OF_ASC_NODE":60.6084,"ARG_OF_PERICENTER":99.8937,"MEAN_ANOMALY":260.2424,"EPHEMERIS_TYPE":0,"CLASSIFICATION_TYPE":"U","NORAD_CAT_ID":45449,"ELEMENT_SET_NO":999,"REV_AT_EPOCH":27651,"BSTAR":0.0013004717,"MEAN_MOTION_DOT":4.75e-6,"MEAN_MOTION_DDOT":0}]
